NORAD_CAT_ID,OBJECT_NAME,OBJECT_TYPE,EPOCH,MEAN_MOTION,ECCENTRICITY,INCLINATION,RA_OF_ASC_NODE,ARG_OF_PERICENTER,MEAN_ANOMALY,BSTAR,MEAN_MOTION_DOT,MEAN_MOTION_DDOT,TLE_LINE0,TLE_LINE1,TLE_LINE2,SEMIMAJOR_AXIS,PERIOD,APOGEE,PERIGEE,DECAYED
52108.0,STARLINK-3698,PAYLOAD,2024-07-19 10:04:16,15.08841728,0.0001429,53.216,244.8626,83.9005,276.215,5.9797e-05,6.64e-06,0.0,0 STARLINK-3698,1 52108U 22029W   24201.41963708  .00000664  00000-0  59797-4 0  9995,2 52108  53.2160 244.8626 0001429  83.9005 276.2150 15.08841728130469,6917.875,95.437,540.729,538.752,0.0
52108.0,STARLINK-3698,PAYLOAD,2024-07-19 19:36:35,15.0883851,0.0001421,53.2158,243.0782,80.3806,279.7347,6.7232e-05,7.82e-06,0.0,0 STARLINK-3698,1 52108U 22029W   24201.81707852  .00000782  00000-0  67232-4 0  9999,2 52108  53.2158 243.0782 0001421  80.3806 279.7347 15.08838510130520,6917.885,95.438,540.733,538.767,0.0
52108.0,STARLINK-3698,PAYLOAD,2024-07-20 09:55:04,15.08835734,0.0001488,53.2167,240.4038,90.3153,269.801,5.8071e-05,6.36e-06,0.0,0 STARLINK-3698,1 52108U 22029W   24202.41324263  .00000636  00000-0  58071-4 0  9996,2 52108  53.2167 240.4038 0001488  90.3153 269.8010 15.08835734130616,6917.893,95.438,540.788,538.729,0.0
52108.0,STARLINK-3698,PAYLOAD,2024-07-20 19:27:23,15.08832868,0.0001466,53.2166,238.6196,89.9522,270.1638,3.7715e-05,3.12e-06,0.0,0 STARLINK-3698,1 52108U 22029W   24202.81068678  .00000312  00000-0  37715-4 0  9998,2 52108  53.2166 238.6196 0001466  89.9522 270.1638 15.08832868130671,6917.902,95.438,540.781,538.753,0.0
52108.0,STARLINK-3698,PAYLOAD,2024-07-21 11:21:14,15.08837677,0.0001458,53.2162,235.6453,92.4093,267.7066,3.4977e-05,2.69e-06,0.0,0 STARLINK-3698,1 52108U 22029W   24203.47308635  .00000269  00000-0  34977-4 0  9999,2 52108  53.2162 235.6453 0001458  92.4093 267.7066 15.08837677130774,6917.887,95.438,540.761,538.744,0.0
52108.0,STARLINK-3698,PAYLOAD,2024-07-22 11:12:01,15.08846968,0.0001432,53.2153,231.1841,90.5697,269.546,0.00011629,1.564e-05,0.0,0 STARLINK-3698,1 52108U 22029W   24204.46667861  .00001564  00000-0  11629-3 0  9995,2 52108  53.2153 231.1841 0001432  90.5697 269.5460 15.08846968130925,6917.859,95.437,540.715,538.733,0.0
52108.0,STARLINK-3698,PAYLOAD,2024-07-23 07:52:02,15.08837936,0.0001499,53.2152,227.3169,90.0658,270.0506,9.6534e-05,1.249e-05,0.0,0 STARLINK-3698,1 52108U 22029W   24205.32780556  .00001249  00000-0  96534-4 0  9997,2 52108  53.2152 227.3169 0001499  90.0658 270.0506 15.08837936131057,6917.887,95.438,540.789,538.715,0.0
52108.0,STARLINK-3698,PAYLOAD,2024-07-24 07:42:49,15.0884163,0.0001487,53.2156,222.8553,92.4807,267.6355,-2.1502e-05,-6.3e-06,0.0,0 STARLINK-3698,1 52108U 22029W   24206.32140589 -.00000630  00000-0 -21502-4 0  9992,2 52108  53.2156 222.8553 0001487  92.4807 267.6355 15.08841630131204,6917.875,95.437,540.769,538.712,0.0
52108.0,STARLINK-3698,PAYLOAD,2024-07-25 04:22:49,15.08842591,0.0001419,53.2155,218.9906,88.6956,271.4199,6.2491e-05,7.07e-06,0.0,0 STARLINK-3698,1 52108U 22029W   24207.18252156  .00000707  00000-0  62491-4 0  9996,2 52108  53.2155 218.9906 0001419  88.6956 271.4199 15.08842591131338,6917.872,95.437,540.719,538.756,0.0
52108.0,STARLINK-3698,PAYLOAD,2024-07-25 05:58:12,15.08842844,0.0001418,53.2153,218.6932,88.0413,272.0741,6.3668e-05,7.26e-06,0.0,0 STARLINK-3698,1 52108U 22029W   24207.24876129  .00000726  00000-0  63668-4 0  9993,2 52108  53.2153 218.6932 0001418  88.0413 272.0741 15.08842844131345,6917.872,95.437,540.718,538.756,0.0
52108.0,STARLINK-3698,PAYLOAD,2024-07-25 07:33:36,15.08843293,0.0001429,53.2155,218.3959,88.6304,271.4852,6.6962e-05,7.78e-06,0.0,0 STARLINK-3698,1 52108U 22029W   24207.31500082  .00000778  00000-0  66962-4 0  9990,2 52108  53.2155 218.3959 0001429  88.6304 271.4852 15.08843293131356,6917.87,95.437,540.724,538.747,0.0
52108.0,STARLINK-3698,PAYLOAD,2024-07-26 04:13:37,15.08834937,0.0001469,53.2154,214.5302,94.8492,265.2668,2.504e-05,1.11e-06,0.0,0 STARLINK-3698,1 52108U 22029W   24208.17612703  .00000111  00000-0  25040-4 0  9992,2 52108  53.2154 214.5302 0001469  94.8492 265.2668 15.08834937131481,6917.896,95.438,540.777,538.745,0.0
52108.0,STARLINK-3698,PAYLOAD,2024-07-26 05:49:00,15.08835111,0.0001468,53.2153,214.2329,94.4978,265.6182,2.6212e-05,1.29e-06,0.0,0 STARLINK-3698,1 52108U 22029W   24208.24236704  .00000129  00000-0  26212-4 0  9994,2 52108  53.2153 214.2329 0001468  94.4978 265.6182 15.08835111131491,6917.895,95.438,540.776,538.745,0.0
52108.0,STARLINK-3698,PAYLOAD,2024-07-26 16:56:42,15.0883704,0.000145,53.2154,212.1528,88.984,271.1318,1.2898e-05,-8.3e-07,0.0,0 STARLINK-3698,1 52108U 22029W   24208.70604728 -.00000083  00000-0  12898-4 0  9995,2 52108  53.2154 212.1528 0001450  88.9840 271.1318 15.08837040131561,6917.889,95.438,540.758,538.751,0.0
52108.0,STARLINK-3698,PAYLOAD,2024-07-27 05:39:47,15.08836462,0.000138,53.2147,209.7713,87.302,272.813,-2.9e-05,-7.49e-06,0.0,0 STARLINK-3698,1 52108U 22029W   24209.23596917 -.00000749  00000-0 -29000-4 0  9997,2 52108  53.2147 209.7713 0001380  87.3020 272.8130 15.08836462131642,6917.891,95.438,540.711,538.802,0.0
52108.0,STARLINK-3698,PAYLOAD,2024-07-28 10:16:44,15.08836284,0.0001343,53.2148,204.4185,92.0409,268.0737,2.9937e-05,1.89e-06,0.0,0 STARLINK-3698,1 52108U 22029W   24210.42829035  .00000189  00000-0  29937-4 0  9995,2 52108  53.2148 204.4185 0001343  92.0409 268.0737 15.08836284131823,6917.892,95.438,540.686,538.828,0.0
52108.0,STARLINK-3698,PAYLOAD,2024-07-29 06:56:45,15.08835984,0.0001366,53.2151,200.5527,88.509,271.6059,5.9304e-05,6.56e-06,0.0,0 STARLINK-3698,1 52108U 22029W   24211.28941217  .00000656  00000-0  59304-4 0  9997,2 52108  53.2151 200.5527 0001366  88.5090 271.6059 15.08835984131952,6917.893,95.438,540.703,538.813,0.0
52108.0,STARLINK-3698,PAYLOAD,2024-07-29 16:29:04,15.08837628,0.0001368,53.2153,198.7686,88.8139,271.301,6.0305e-05,6.72e-06,0.0,0 STARLINK-3698,1 52108U 22029W   24211.68685203  .00000672  00000-0  60305-4 0  9992,2 52108  53.2153 198.7686 0001368  88.8139 271.3010 15.08837628132016,6917.888,95.438,540.699,538.806,0.0
52108.0,STARLINK-3698,PAYLOAD,2024-07-30 06:47:31,15.08843155,0.0001356,53.2151,196.0921,89.9636,270.1511,7.7657e-05,9.48e-06,0.0,0 STARLINK-3698,1 52108U 22029W   24212.28300827  .00000948  00000-0  77657-4 0  9999,2 52108  53.2151 196.0921 0001356  89.9636 270.1511 15.08843155132103,6917.871,95.437,540.674,538.798,0.0
52108.0,STARLINK-3698,PAYLOAD,2024-07-30 16:19:50,15.08844871,0.000137,53.2153,194.3084,89.2973,270.8176,8.3787e-05,1.046e-05,0.0,0 STARLINK-3698,1 52108U 22029W   24212.68044635  .00001046  00000-0  83787-4 0  9996,2 52108  53.2153 194.3084 0001370  89.2973 270.8176 15.08844871132165,6917.866,95.437,540.678,538.783,0.0
52108.0,STARLINK-3698,PAYLOAD,2024-07-31 05:02:55,15.08846524,0.0001353,53.2155,191.9302,88.2502,271.8645,8.0471e-05,9.93e-06,0.0,0 STARLINK-3698,1 52108U 22029W   24213.21036425  .00000993  00000-0  80471-4 0  9991,2 52108  53.2155 191.9302 0001353  88.2502 271.8645 15.08846524132249,6917.86,95.437,540.661,538.789,0.0
52108.0,STARLINK-3698,PAYLOAD,2024-07-31 16:10:37,15.08838884,0.0001261,53.2143,189.8467,94.2972,265.8164,9.3414e-06,-1.39e-06,0.0,0 STARLINK-3698,1 52108U 22029W   24213.67404958 -.00000139  00000-0  93414-5 0  9996,2 52108  53.2143 189.8467 0001261  94.2972 265.8164 15.08838884132317,6917.884,95.438,540.621,538.876,0.0
52108.0,STARLINK-3698,PAYLOAD,2024-08-01 04:53:43,15.08833894,0.0001457,53.2158,187.4697,90.0652,270.0507,-2.9347e-05,-7.55e-06,0.0,0 STARLINK-3698,1 52108U 22029W   24214.20397617 -.00000755  00000-0 -29347-4 0  9997,2 52108  53.2158 187.4697 0001457  90.0652 270.0507 15.08833894132391,6917.899,95.438,540.772,538.756,0.0
52108.0,STARLINK-3698,PAYLOAD,2024-08-02 04:44:28,15.08855507,0.0001512,53.2174,183.0106,90.7613,269.3552,8.5057e-05,1.066e-05,0.0,0 STARLINK-3698,1 52108U 22029W   24215.19755544  .00001066  00000-0  85057-4 0  9997,2 52108  53.2174 183.0106 0001512  90.7613 269.3552 15.08855507132545,6917.833,95.437,540.744,538.652,0.0
52108.0,STARLINK-3698,PAYLOAD,2024-08-02 07:55:15,15.08826198,0.000173,53.2172,182.4141,98.4595,261.6593,0.00054044,8.32e-05,0.0,0 STARLINK-3698,1 52108U 22029W   24215.33003784  .00008320  00000-0  54044-3 0  9996,2 52108  53.2172 182.4141 0001730  98.4595 261.6593 15.08826198132567,6917.923,95.438,540.984,538.591,0.0
52108.0,STARLINK-3698,PAYLOAD,2024-08-03 04:35:17,15.0882867,0.0001397,53.2158,178.55,95.4532,264.6619,-5.1782e-05,-1.112e-05,0.0,0 STARLINK-3698,1 52108U 22029W   24216.19118042 -.00001112  00000-0 -51782-4 0  9996,2 52108  53.2158 178.5500 0001397  95.4532 264.6619 15.08828670132696,6917.915,95.438,540.746,538.814,0.0
52108.0,STARLINK-3698,PAYLOAD,2024-08-03 14:07:36,15.08833767,0.0001437,53.2163,176.7659,98.5421,261.5734,-4.9229e-05,-1.071e-05,0.0,0 STARLINK-3698,1 52108U 22029W   24216.58861912 -.00001071  00000-0 -49229-4 0  9997,2 52108  53.2163 176.7659 0001437  98.5421 261.5734 15.08833767132757,6917.899,95.438,540.759,538.77,0.0
52108.0,STARLINK-3698,PAYLOAD,2024-08-03 22:04:32,15.08840592,0.0001435,53.216,175.2781,109.8347,250.28,-0.00012396,-2.26e-05,0.0,0 STARLINK-3698,1 52108U 22029W   24216.91981862 -.00002260  00000-0 -12396-3 0  9996,2 52108  53.2160 175.2781 0001435 109.8347 250.2800 15.08840592132804,6917.879,95.438,540.736,538.751,0.0
52108.0,STARLINK-3698,PAYLOAD,2024-08-04 04:26:04,15.08846452,0.0001451,53.2163,174.0904,107.6897,252.4253,-2.5068e-05,-6.87e-06,0.0,0 STARLINK-3698,1 52108U 22029W   24217.18477221 -.00000687  00000-0 -25068-4 0  9997,2 52108  53.2163 174.0904 0001451 107.6897 252.4253 15.08846452132846,6917.861,95.437,540.729,538.722,0.0
52108.0,STARLINK-3698,PAYLOAD,2024-08-04 13:58:22,15.08848859,0.0001701,53.2163,172.3061,128.1366,231.978,-3.5465e-05,-8.53e-06,0.0,0 STARLINK-3698,1 52108U 22029W   24217.58220917 -.00000853  00000-0 -35465-4 0  9996,2 52108  53.2163 172.3061 0001701 128.1366 231.9780 15.08848859132905,6917.853,95.437,540.895,538.542,0.0
